LEMUR-2-LEIA-PHILIP     
1 63246U 25052AN  26187.64991578  .00002154  00000+0  19035-3 0  9990
2 63246  97.6815  79.2713 0004805 141.4214 218.7352 14.97373986 71588
LEMUR-2-LIA-MARTIN      
1 63248U 25052AQ  26187.64800424  .00004626  00000+0  39684-3 0  9999
2 63248  97.6861  79.7730 0005203 111.5295 248.6482 14.97976249 71593
LEMUR-2-DELOITTE-1      
1 63259U 25052BB  26187.69387655  .00003288  00000+0  28529-3 0  9991
2 63259  97.6883  80.1499 0002286  65.5794 294.5666 14.97742162 71619
LEMUR-2-EMERSONROSE     
1 63261U 25052BD  26187.85006093  .00003871  00000+0  32228-3 0  9995
2 63261  97.6870  80.8979 0002731  74.1277 286.0247 14.99238237 71688
LEMUR-2-MARACHE-FRAN    
1 63262U 25052BE  26187.67842289  .00003628  00000+0  29436-3 0  9998
2 63262  97.6869  81.0855 0004460 292.5592  67.5160 15.00278631 71681
LEMUR-2-THEFALCONER     
1 63264U 25052BG  26187.65631691  .00003974  00000+0  34563-3 0  9992
2 63264  97.6843  79.7114 0000945  28.8650 331.2624 14.97530588 71601
LEMUR-2-UNTITLED-SC     
1 63351U 25061A   26187.85626640  .00002583  00000+0  14703-3 0  9998
2 63351  97.5648 163.0768 0018334 191.5040 168.5775 15.13610698 70566
LEMUR-2-ESPERANZA       
1 63352U 25061B   26187.69998076  .00004120  00000+0  23161-3 0  9993
2 63352  97.5653 163.0196 0017960 191.3991 168.6836 15.13717061 70544
LEMUR-2-KREMPEL-BRO2    
1 63353U 25061C   26187.45699132  .00003060  00000+0  17087-3 0  9991
2 63353  97.5703 163.3364 0019039 184.8544 175.2506 15.14139561 70521
LEMUR-2-THERMORAPTOR    
1 63354U 25061D   26187.83452242  .00002722  00000+0  15208-3 0  9990
2 63354  97.5706 163.7910 0018857 182.3790 177.7355 15.14223272 70587
LEMUR-2-NEUROSPICY      
1 63355U 25061E   26187.73861314  .00003629  00000+0  20106-3 0  9994
2 63355  97.5634 163.3068 0016596 185.6579 174.4468 15.14342318 70578
LEMUR-2-TILLINFINITY    
1 63356U 25061F   26187.43608049  .00003150  00000+0  17208-3 0  9994
2 63356  97.5620 163.3100 0018167 175.1118 185.0295 15.14922509 70550
LEMUR-2-KREMPEL-BRO1    
1 63357U 25061G   26187.74231852  .00003734  00000+0  20433-3 0  9995
2 63357  97.5621 163.5252 0018813 175.6075 184.5326 15.14733329 70590
LEMUR-2-LANGER2SPACE    
1 63358U 25061H   26187.44237065  .00003084  00000+0  17104-3 0  9994
2 63358  97.5625 163.0333 0016530 184.8273 175.2802 15.14424704 70530
LEMUR-2-BALTO           
1 63395U 25052BH  26187.66302122  .00004754  00000+0  38376-3 0  9995
2 63395  97.6926  81.0497 0005705   0.8903 359.2329 15.00309534 71688
LEMUR-2-KRISH           
1 64561U 25135AK  26187.73511008  .00004948  00000+0  44172-3 0  9992
2 64561  97.7758 302.4794 0001717 101.7951 258.3462 14.96397260 56846
